NORAD_CAT_ID,OBJECT_NAME,OBJECT_TYPE,EPOCH,MEAN_MOTION,ECCENTRICITY,INCLINATION,RA_OF_ASC_NODE,ARG_OF_PERICENTER,MEAN_ANOMALY,BSTAR,MEAN_MOTION_DOT,MEAN_MOTION_DDOT,TLE_LINE0,TLE_LINE1,TLE_LINE2,SEMIMAJOR_AXIS,PERIOD,APOGEE,PERIGEE,DECAYED
54003.0,STARLINK-5114,PAYLOAD,2024-01-28 12:16:25,15.08847554,0.0001742,53.2186,75.869,98.6102,261.5088,1.7678e-05,-7e-08,0.0,0 STARLINK-5114,1 54003U 22125AR  24028.51140839 -.00000007  00000-0  17678-4 0  9992,2 54003  53.2186  75.8690 0001742  98.6102 261.5088 15.08847554 73045,6917.857,95.437,540.927,538.517,0.0
54003.0,STARLINK-5114,PAYLOAD,2024-01-29 10:31:49,15.08843352,0.0001899,53.2188,71.704,69.3529,290.7667,6.4774e-05,7.43e-06,0.0,0 STARLINK-5114,1 54003U 22125AR  24029.43877150  .00000743  00000-0  64774-4 0  9992,2 54003  53.2188  71.7040 0001899  69.3529 290.7667 15.08843352 73232,6917.87,95.437,541.049,538.421,0.0
54003.0,STARLINK-5114,PAYLOAD,2024-01-30 08:47:13,15.08843222,0.0001812,53.2176,67.5508,71.4483,288.6706,2.4569e-05,1.03e-06,0.0,0 STARLINK-5114,1 54003U 22125AR  24030.36613313  .00000103  00000-0  24569-4 0  9993,2 54003  53.2176  67.5508 0001812  71.4483 288.6706 15.08843222 73325,6917.871,95.437,540.989,538.482,0.0
54003.0,STARLINK-5114,PAYLOAD,2024-01-31 08:38:00,15.08846665,0.000149,53.2182,63.0879,104.6018,255.514,-1.6171e-05,-5.45e-06,0.0,0 STARLINK-5114,1 54003U 22125AR  24031.35972863 -.00000545  00000-0 -16171-4 0  9993,2 54003  53.2182  63.0879 0001490 104.6018 255.5140 15.08846665 73520,6917.86,95.437,540.756,538.694,0.0
54003.0,STARLINK-5114,PAYLOAD,2024-02-01 11:39:34,15.08838955,0.0001655,53.2182,58.0304,97.8923,262.2257,3.2132e-05,2.23e-06,0.0,0 STARLINK-5114,1 54003U 22125AR  24032.48581210  .00000223  00000-0  32132-4 0  9996,2 54003  53.2182  58.0304 0001655  97.8923 262.2257 15.08838955 73693,6917.884,95.438,540.893,538.604,0.0
54003.0,STARLINK-5114,PAYLOAD,2024-02-02 08:19:35,15.08825725,0.0001672,53.2179,54.1664,100.6487,259.4694,0.00023716,3.487e-05,0.0,0 STARLINK-5114,1 54003U 22125AR  24033.34693439  .00003487  00000-0  23716-3 0  9991,2 54003  53.2179  54.1664 0001672 100.6487 259.4694 15.08825725 73775,6917.924,95.438,540.946,538.632,0.0
54003.0,STARLINK-5114,PAYLOAD,2024-02-03 09:45:45,15.08834985,0.0001647,53.218,49.4089,100.2408,259.877,1.1625e-05,-1.03e-06,0.0,0 STARLINK-5114,1 54003U 22125AR  24034.40677960 -.00000103  00000-0  11625-4 0  9990,2 54003  53.2180  49.4089 0001647 100.2408 259.8770 15.08834985 73986,6917.896,95.438,540.9,538.621,0.0
54003.0,STARLINK-5114,PAYLOAD,2024-02-04 11:11:55,15.08844473,0.0001614,53.2182,44.6515,94.6138,265.5038,8.3718e-05,1.045e-05,0.0,0 STARLINK-5114,1 54003U 22125AR  24035.46661448  .00001045  00000-0  83718-4 0  9998,2 54003  53.2182  44.6515 0001614  94.6138 265.5038 15.08844473 74142,6917.867,95.437,540.848,538.615,0.0
54003.0,STARLINK-5114,PAYLOAD,2024-02-05 04:41:10,15.08838488,0.0001659,53.2189,41.3786,93.1359,266.9823,7.6354e-05,9.27e-06,0.0,0 STARLINK-5114,1 54003U 22125AR  24036.19525910  .00000927  00000-0  76354-4 0  9998,2 54003  53.2189  41.3786 0001659  93.1359 266.9823 15.08838488 74259,6917.885,95.438,540.898,538.602,0.0
54003.0,STARLINK-5114,PAYLOAD,2024-02-05 07:51:56,15.08841947,0.0001625,53.2186,40.784,87.4864,272.6314,9.4909e-05,1.223e-05,0.0,0 STARLINK-5114,1 54003U 22125AR  24036.32773737  .00001223  00000-0  94909-4 0  9991,2 54003  53.2186  40.7840 0001625  87.4864 272.6314 15.08841947 74220,6917.874,95.437,540.864,538.615,0.0
54003.0,STARLINK-5114,PAYLOAD,2024-02-06 09:18:06,15.08848148,0.0001969,53.2192,36.0213,69.2298,290.8905,5.5268e-05,5.92e-06,0.0,0 STARLINK-5114,1 54003U 22125AR  24037.38757550  .00000592  00000-0  55268-4 0  9996,2 54003  53.2192  36.0213 0001969  69.2298 290.8905 15.08848148 74430,6917.855,95.437,541.083,538.358,0.0
54003.0,STARLINK-5114,PAYLOAD,2024-02-07 04:22:44,15.08839425,0.0002049,53.2205,32.4467,80.2002,279.9221,-2.1082e-06,-3.22e-06,0.0,0 STARLINK-5114,1 54003U 22125AR  24038.18246221 -.00000322  00000-0 -21082-5 0  9994,2 54003  53.2205  32.4467 0002049  80.2002 279.9221 15.08839425 74552,6917.882,95.438,541.165,538.33,0.0
54003.0,STARLINK-5114,PAYLOAD,2024-02-07 09:08:54,15.08839769,0.000177,53.2203,31.5574,96.3827,263.7367,-3.5636e-05,-8.55e-06,0.0,0 STARLINK-5114,1 54003U 22125AR  24038.38118141 -.00000855  00000-0 -35636-4 0  9995,2 54003  53.2203  31.5574 0001770  96.3827 263.7367 15.08839769 74533,6917.881,95.438,540.971,538.522,0.0
54003.0,STARLINK-5114,PAYLOAD,2024-02-07 17:05:49,15.08837343,0.0001634,53.2192,30.0756,116.2391,243.877,3.2844e-05,2.35e-06,0.0,0 STARLINK-5114,1 54003U 22125AR  24038.71238034  .00000235  00000-0  32844-4 0  9994,2 54003  53.2192  30.0756 0001634 116.2391 243.8770 15.08837343 74581,6917.889,95.438,540.884,538.623,0.0
54003.0,STARLINK-5114,PAYLOAD,2024-02-08 05:48:54,15.08847183,0.000158,53.2186,27.6987,102.1753,257.9416,1.6018e-05,-3.3e-07,0.0,0 STARLINK-5114,1 54003U 22125AR  24039.24229703 -.00000033  00000-0  16018-4 0  9998,2 54003  53.2186  27.6987 0001580 102.1753 257.9416 15.08847183 74719,6917.858,95.437,540.816,538.63,0.0
54003.0,STARLINK-5114,PAYLOAD,2024-02-09 04:04:18,15.08851617,0.0001558,53.2179,23.538,112.3484,247.7673,-0.00014939,-2.666e-05,0.0,0 STARLINK-5114,1 54003U 22125AR  24040.16966209 -.00002666  00000-0 -14939-3 0  9994,2 54003  53.2179  23.5380 0001558 112.3484 247.7673 15.08851617 74856,6917.845,95.437,540.788,538.632,0.0
54003.0,STARLINK-5114,PAYLOAD,2024-02-09 05:39:41,15.0885178,0.000163,53.2184,23.2403,113.4943,246.6221,-0.00011837,-2.172e-05,0.0,0 STARLINK-5114,1 54003U 22125AR  24040.23590060 -.00002172  00000-0 -11837-3 0  9996,2 54003  53.2184  23.2403 0001630 113.4943 246.6221 15.08851780 74812,6917.844,95.437,540.837,538.582,0.0
54003.0,STARLINK-5114,PAYLOAD,2024-02-10 03:55:06,15.08835746,0.0001627,53.2195,19.0797,103.7366,256.3807,2.861e-05,1.67e-06,0.0,0 STARLINK-5114,1 54003U 22125AR  24041.16326872  .00000167  00000-0  28610-4 0  9995,2 54003  53.2195  19.0797 0001627 103.7366 256.3807 15.08835746 75004,6917.893,95.438,540.884,538.633,0.0
54003.0,STARLINK-5114,PAYLOAD,2024-02-11 03:45:53,15.08841239,0.0001702,53.2192,14.6193,112.9075,247.2096,5.0293e-05,5.12e-06,0.0,0 STARLINK-5114,1 54003U 22125AR  24042.15686698  .00000512  00000-0  50293-4 0  9996,2 54003  53.2192  14.6193 0001702 112.9075 247.2096 15.08841239 75109,6917.877,95.437,540.919,538.564,0.0
54003.0,STARLINK-5114,PAYLOAD,2024-02-12 03:36:39,15.0884658,0.0001376,53.2188,10.1588,108.6109,251.5033,0.00011616,1.562e-05,0.0,0 STARLINK-5114,1 54003U 22125AR  24043.15046127  .00001562  00000-0  11616-3 0  9995,2 54003  53.2188  10.1588 0001376 108.6109 251.5033 15.08846580 75305,6917.86,95.437,540.677,538.773,0.0
54003.0,STARLINK-5114,PAYLOAD,2024-02-12 05:12:02,15.08850107,0.0001589,53.22,9.8636,69.1639,290.9524,0.0001511,2.118e-05,0.0,0 STARLINK-5114,1 54003U 22125AR  24043.21670038  .00002118  00000-0  15110-3 0  9997,2 54003  53.2200   9.8636 0001589  69.1639 290.9524 15.08850107 75261,6917.849,95.437,540.814,538.615,0.0
54003.0,STARLINK-5114,PAYLOAD,2024-02-12 21:05:55,15.08840002,0.0001497,53.2188,6.8889,88.2211,271.8953,1.0905e-05,-1.14e-06,0.0,0 STARLINK-5114,1 54003U 22125AR  24043.87910994 -.00000114  00000-0  10905-4 0  9990,2 54003  53.2188   6.8889 0001497  88.2211 271.8953 15.08840002 75367,6917.88,95.438,540.781,538.71,0.0
54003.0,STARLINK-5114,PAYLOAD,2024-02-13 03:27:27,15.08838462,0.0001408,53.2191,5.6969,100.9226,259.1924,3.4306e-06,-2.33e-06,0.0,0 STARLINK-5114,1 54003U 22125AR  24044.14407066 -.00000233  00000-0  34306-5 0  9996,2 54003  53.2191   5.6969 0001408 100.9226 259.1924 15.08838462 75451,6917.885,95.438,540.724,538.776,0.0
54003.0,STARLINK-5114,PAYLOAD,2024-02-13 06:38:13,15.08846726,0.000146,53.2191,5.101,102.9491,257.1664,7.6483e-05,9.3e-06,0.0,0 STARLINK-5114,1 54003U 22125AR  24044.27654421  .00000930  00000-0  76483-4 0  9993,2 54003  53.2191   5.1010 0001460 102.9491 257.1664 15.08846726 75470,6917.86,95.437,540.735,538.715,0.0
54003.0,STARLINK-5114,PAYLOAD,2024-02-13 14:35:10,15.08835912,0.0001572,53.219,3.6156,93.6705,266.4467,-8.2285e-06,-4.19e-06,0.0,0 STARLINK-5114,1 54003U 22125AR  24044.60775483 -.00000419  00000-0 -82285-5 0  9994,2 54003  53.2190   3.6156 0001572  93.6705 266.4467 15.08835912 75470,6917.893,95.438,540.845,538.67,0.0
54003.0,STARLINK-5114,PAYLOAD,2024-02-13 20:56:42,15.08843212,0.000152,53.2194,2.4266,79.8651,280.2513,-0.00010088,-1.893e-05,0.0,0 STARLINK-5114,1 54003U 22125AR  24044.87271412 -.00001893  00000-0 -10088-3 0  9993,2 54003  53.2194   2.4266 0001520  79.8651 280.2513 15.08843212 75515,6917.871,95.437,540.787,538.684,0.0
54003.0,STARLINK-5114,PAYLOAD,2024-02-14 03:18:14,15.08846469,0.0001058,53.2184,1.236,87.8813,272.2301,-7.5195e-05,-1.485e-05,0.0,0 STARLINK-5114,1 54003U 22125AR  24045.13766851 -.00001485  00000-0 -75195-4 0  9997,2 54003  53.2184   1.2360 0001058  87.8813 272.2301 15.08846469 75604,6917.861,95.437,540.458,538.994,0.0
54003.0,STARLINK-5114,PAYLOAD,2024-02-14 14:25:55,15.08856394,0.0001239,53.217,359.1561,92.3318,267.7816,2.0083e-05,3.2e-07,0.0,0 STARLINK-5114,1 54003U 22125AR  24045.60133707  .00000032  00000-0  20083-4 0  9998,2 54003  53.2170 359.1561 0001239  92.3318 267.7816 15.08856394 75629,6917.83,95.437,540.552,538.838,0.0
54003.0,STARLINK-5114,PAYLOAD,2024-02-15 03:09:01,15.08846102,0.0001638,53.2193,356.7735,105.065,255.0524,9.0373e-05,1.151e-05,0.0,0 STARLINK-5114,1 54003U 22125AR  24046.13126560  .00001151  00000-0  90373-4 0  9998,2 54003  53.2193 356.7735 0001638 105.0650 255.0524 15.08846102 75750,6917.862,95.437,540.86,538.594,0.0
54003.0,STARLINK-5114,PAYLOAD,2024-02-15 20:38:16,15.08835774,0.0001417,53.2162,353.5056,87.6271,272.4883,6.9978e-05,8.26e-06,0.0,0 STARLINK-5114,1 54003U 22125AR  24046.85991489  .00000826  00000-0  69978-4 0  9992,2 54003  53.2162 353.5056 0001417  87.6271 272.4883 15.08835774 75817,6917.893,95.438,540.739,538.778,0.0
